{
  "norad_id": 64236,
  "name": "STARLINK-11691 [DTC]",
  "history": [
    {
      "epoch": "2026-03-28T11:48:25.568640Z",
      "apogee_km": 358.0926039705628,
      "perigee_km": 354.35045562272444,
      "latitude_deg": 4.9052954486578334e-05,
      "longitude_deg": 92.60028007009029,
      "height_km": 355.9911238013744,
      "semi_major_axis_km": 6734.358529796643,
      "eccentricity": 0.00027784,
      "inclination_deg": 43.0026,
      "raan_deg": 95.6184,
      "arg_perigee_deg": 270.1272,
      "mean_anomaly_deg": 89.9278,
      "mean_motion_rev_day": 15.70935706
    },
    {
      "epoch": "2026-03-29T01:32:28.193280Z",
      "apogee_km": 357.3070810498821,
      "perigee_km": 355.1170707304027,
      "latitude_deg": -2.804408072726635e-05,
      "longitude_deg": -117.4239762007627,
      "height_km": 356.3713427096793,
      "semi_major_axis_km": 6734.349075890143,
      "eccentricity": 0.0001626,
      "inclination_deg": 43.0023,
      "raan_deg": 92.1692,
      "arg_perigee_deg": 249.3299,
      "mean_anomaly_deg": 110.7394,
      "mean_motion_rev_day": 15.70939014
    },
    {
      "epoch": "2026-03-30T03:28:59.251008Z",
      "apogee_km": 357.67714888530645,
      "perigee_km": 354.62867052898036,
      "latitude_deg": 2.5687881346128756e-06,
      "longitude_deg": -154.13524857560003,
      "height_km": 356.4776941376891,
      "semi_major_axis_km": 6734.289909707143,
      "eccentricity": 0.00022634,
      "inclination_deg": 42.9991,
      "raan_deg": 85.6527,
      "arg_perigee_deg": 248.7688,
      "mean_anomaly_deg": 111.2938,
      "mean_motion_rev_day": 15.70959717
    },
    {
      "epoch": "2026-03-30T11:06:48.021120Z",
      "apogee_km": 356.91748092961006,
      "perigee_km": 355.9392179669494,
      "latitude_deg": 1.750967972840049e-05,
      "longitude_deg": 89.18159717475451,
      "height_km": 356.6841315258069,
      "semi_major_axis_km": 6734.565349448279,
      "eccentricity": 7.263e-05,
      "inclination_deg": 42.9974,
      "raan_deg": 83.7361,
      "arg_perigee_deg": 187.537,
      "mean_anomaly_deg": 172.5487,
      "mean_motion_rev_day": 15.70863341
    },
    {
      "epoch": "2026-03-30T23:19:16.067136Z",
      "apogee_km": 357.38638330551294,
      "perigee_km": 354.6290204158886,
      "latitude_deg": 1.5680815762657015e-06,
      "longitude_deg": -97.50363378165305,
      "height_km": 357.14950543420446,
      "semi_major_axis_km": 6734.1447018607005,
      "eccentricity": 0.00020473,
      "inclination_deg": 42.9981,
      "raan_deg": 80.6691,
      "arg_perigee_deg": 186.1029,
      "mean_anomaly_deg": 173.9814,
      "mean_motion_rev_day": 15.71010529
    },
    {
      "epoch": "2026-03-31T00:50:49.513920Z",
      "apogee_km": 357.78609054061417,
      "perigee_km": 354.62808722357386,
      "latitude_deg": 2.0329989716517144e-05,
      "longitude_deg": -120.83764413813924,
      "height_km": 356.097108517922,
      "semi_major_axis_km": 6734.344088882093,
      "eccentricity": 0.00023447,
      "inclination_deg": 43.0001,
      "raan_deg": 80.2871,
      "arg_perigee_deg": 265.7554,
      "mean_anomaly_deg": 94.3046,
      "mean_motion_rev_day": 15.70940759
    },
    {
      "epoch": "2026-04-01T08:53:35.462112Z",
      "apogee_km": 357.06125637727564,
      "perigee_km": 355.7170449576015,
      "latitude_deg": -5.168005261314327e-05,
      "longitude_deg": 109.10684365877638,
      "height_km": 356.05161351777366,
      "semi_major_axis_km": 6734.526150667438,
      "eccentricity": 9.98e-05,
      "inclination_deg": 43.0002,
      "raan_deg": 72.2392,
      "arg_perigee_deg": 279.391,
      "mean_anomaly_deg": 80.6844,
      "mean_motion_rev_day": 15.70877056
    },
    {
      "epoch": "2026-04-02T15:24:49.120416Z",
      "apogee_km": 357.6422522814564,
      "perigee_km": 355.14428031508123,
      "latitude_deg": -2.3035151320309738e-06,
      "longitude_deg": 2.381957155597424,
      "height_km": 355.71704785100786,
      "semi_major_axis_km": 6734.5302662982685,
      "eccentricity": 0.00018546,
      "inclination_deg": 42.9994,
      "raan_deg": 64.5746,
      "arg_perigee_deg": 69.1082,
      "mean_anomaly_deg": 290.9984,
      "mean_motion_rev_day": 15.70875616
    },
    {
      "epoch": "2026-04-02T23:02:35.367648Z",
      "apogee_km": 357.1513829566293,
      "perigee_km": 355.11453566473665,
      "latitude_deg": -4.108862519623998e-05,
      "longitude_deg": -114.29141375126709,
      "height_km": 356.41385815634084,
      "semi_major_axis_km": 6734.269959310683,
      "eccentricity": 0.00015123,
      "inclination_deg": 42.9997,
      "raan_deg": 62.6573,
      "arg_perigee_deg": 240.0369,
      "mean_anomaly_deg": 120.0348,
      "mean_motion_rev_day": 15.70966698
    },
    {
      "epoch": "2026-04-03T20:24:24.672384Z",
      "apogee_km": 357.6547333138251,
      "perigee_km": 355.20469794267956,
      "latitude_deg": 1.8654259554103424e-05,
      "longitude_deg": -80.98946228957445,
      "height_km": 356.00985606461836,
      "semi_major_axis_km": 6734.566715628252,
      "eccentricity": 0.0001819,
      "inclination_deg": 43.0009,
      "raan_deg": 57.292,
      "arg_perigee_deg": 279.0529,
      "mean_anomaly_deg": 81.0133,
      "mean_motion_rev_day": 15.70862863
    },
    {
      "epoch": "2026-04-04T07:05:19.694976Z",
      "apogee_km": 357.4051393451391,
      "perigee_km": 355.22802519106335,
      "latitude_deg": -3.3679430073545476e-05,
      "longitude_deg": 115.660328686178,
      "height_km": 355.7896273066294,
      "semi_major_axis_km": 6734.453582268101,
      "eccentricity": 0.00016164,
      "inclination_deg": 43.0006,
      "raan_deg": 54.6098,
      "arg_perigee_deg": 285.9776,
      "mean_anomaly_deg": 74.0913,
      "mean_motion_rev_day": 15.70902447
    },
    {
      "epoch": "2026-04-05T13:36:32.980032Z",
      "apogee_km": 356.7174456462262,
      "perigee_km": 355.9308605835431,
      "latitude_deg": -3.185231649954798e-05,
      "longitude_deg": 8.935648027248954,
      "height_km": 355.7076390466297,
      "semi_major_axis_km": 6734.461153114885,
      "eccentricity": 5.84e-05,
      "inclination_deg": 43.0005,
      "raan_deg": 46.9439,
      "arg_perigee_deg": 350.4788,
      "mean_anomaly_deg": 9.6068,
      "mean_motion_rev_day": 15.70899798
    },
    {
      "epoch": "2026-04-05T19:42:46.169280Z",
      "apogee_km": 357.0948133582988,
      "perigee_km": 355.2859730204873,
      "latitude_deg": -1.530345078901855e-05,
      "longitude_deg": -84.40305854221472,
      "height_km": 356.17855118310734,
      "semi_major_axis_km": 6734.327393189393,
      "eccentricity": 0.0001343,
      "inclination_deg": 43.0001,
      "raan_deg": 45.4108,
      "arg_perigee_deg": 256.1944,
      "mean_anomaly_deg": 103.8774,
      "mean_motion_rev_day": 15.70946601
    },
    {
      "epoch": "2026-04-06T04:52:08.457888Z",
      "apogee_km": 357.3067586607576,
      "perigee_km": 355.35470584388713,
      "latitude_deg": -3.558168207175181e-05,
      "longitude_deg": 135.57841839703786,
      "height_km": 355.2257251607987,
      "semi_major_axis_km": 6734.467732252322,
      "eccentricity": 0.00014493,
      "inclination_deg": 43.0003,
      "raan_deg": 43.1112,
      "arg_perigee_deg": 333.9591,
      "mean_anomaly_deg": 26.1203,
      "mean_motion_rev_day": 15.70897496
    },
    {
      "epoch": "2026-04-07T12:54:54.117504Z",
      "apogee_km": 357.1753707231592,
      "perigee_km": 355.37593566222586,
      "latitude_deg": 8.542293490565527e-06,
      "longitude_deg": 5.524030357074532,
      "height_km": 355.36176590531596,
      "semi_major_axis_km": 6734.412653192692,
      "eccentricity": 0.0001336,
      "inclination_deg": 43.0002,
      "raan_deg": 35.0631,
      "arg_perigee_deg": 40.4935,
      "mean_anomaly_deg": 319.6032,
      "mean_motion_rev_day": 15.70916768
    },
    {
      "epoch": "2026-04-07T20:32:40.638624Z",
      "apogee_km": 357.51880175649967,
      "perigee_km": 355.11729508623284,
      "latitude_deg": -1.9991344241371013e-05,
      "longitude_deg": -111.14927509594345,
      "height_km": 355.9222870719902,
      "semi_major_axis_km": 6734.455048421366,
      "eccentricity": 0.0001783,
      "inclination_deg": 43.0004,
      "raan_deg": 33.147,
      "arg_perigee_deg": 278.0702,
      "mean_anomaly_deg": 81.9963,
      "mean_motion_rev_day": 15.70901934
    },
    {
      "epoch": "2026-04-08T04:10:28.819488Z",
      "apogee_km": 357.46293731932474,
      "perigee_km": 355.2750310151887,
      "latitude_deg": -2.1440941599017023e-05,
      "longitude_deg": 132.17011376992147,
      "height_km": 356.244746768122,
      "semi_major_axis_km": 6734.505984167256,
      "eccentricity": 0.00016244,
      "inclination_deg": 43.0,
      "raan_deg": 31.2305,
      "arg_perigee_deg": 264.5892,
      "mean_anomaly_deg": 95.479,
      "mean_motion_rev_day": 15.70884112
    },
    {
      "epoch": "2026-04-09T12:13:14.797056Z",
      "apogee_km": 356.5824165580234,
      "perigee_km": 356.179153633052,
      "latitude_deg": 3.875898721804759e-06,
      "longitude_deg": 2.1139767722238605,
      "height_km": 356.07422920860154,
      "semi_major_axis_km": 6734.517785095538,
      "eccentricity": 2.994e-05,
      "inclination_deg": 42.9998,
      "raan_deg": 23.182,
      "arg_perigee_deg": 292.7483,
      "mean_anomaly_deg": 67.3353,
      "mean_motion_rev_day": 15.70879983
    },
    {
      "epoch": "2026-04-10T03:28:49.133568Z",
      "apogee_km": 359.32646978911635,
      "perigee_km": 352.75606673633774,
      "latitude_deg": -3.179223099100777e-05,
      "longitude_deg": 128.76178120987515,
      "height_km": 356.8183186536202,
      "semi_major_axis_km": 6734.178268262727,
      "eccentricity": 0.00048784,
      "inclination_deg": 42.9999,
      "raan_deg": 19.3496,
      "arg_perigee_deg": 252.2272,
      "mean_anomaly_deg": 107.8063,
      "mean_motion_rev_day": 15.70998783
    }
  ]
}